ALOS (DAICHI)           
1 28931U 06002A   26061.83134560  .00001770  00000+0  30490-3 0  9999
2 28931  98.1206  17.8218 0001191  51.3413 308.7899 14.69783066 72471
H-2A R/B                
1 28932U 06002B   26061.41624412  .00012304  00000+0  61844-3 0  9996
2 28932  98.2393 207.8164 0051963 266.0614  93.4675 15.16231157 93331
RESURS-DK 1             
1 29228U 06021A   26061.72457365  .00003215  00000+0  18935-3 0  9995
2 29228  69.9303 255.0413 0002475 165.5368 194.5869 15.12688957 86476
CZ-4B R/B               
1 29507U 06046C   26061.68263100  .00005730  00000+0  29130-3 0  9992
2 29507  97.5608 106.6100 0031855 292.8620  66.9250 15.16816041 58986
CZ-2C R/B               
1 31114U 07010B   26061.75132180  .00000144  00000+0  85182-4 0  9996
2 31114  98.3977 175.3782 0058086 315.1529  44.4962 14.20243281978731
COSMO-SKYMED 1          
1 31598U 07023A   26061.84436346  .00003878  00000+0  34689-3 0  9999
2 31598  97.8863 252.8222 0000835  85.9902 274.1414 14.96469537 13888
COSMOS 2428             
1 31792U 07029A   26061.80918910  .00000085  00000+0  71447-4 0  9990
2 31792  70.9419 217.7848 0008729 284.4285  75.5867 14.12944272963125
SL-16 R/B               
1 31793U 07029B   26061.79422001 -.00000188  00000+0 -72518-4 0  9996
2 31793  70.9755 186.8781 0002417 278.4023 233.4083 14.14834082964396
KORONAS-FOTON           
1 33504U 09003A   26061.69657773  .00013226  00000+0  29745-3 0  9995
2 33504  82.4283 283.1490 0010685 173.5168 186.6220 15.43119150944666
CZ-2C R/B               
1 37731U 11030B   26061.78902830  .00002200  00000+0  28281-3 0  9995
2 37731  97.8529  19.1907 0053062  14.4983  46.8443 14.81188581789070
H-2A R/B                
1 38341U 12025E   26061.83540830  .00005048  00000+0  45800-3 0  9991
2 38341  98.4711  28.3333 0044018 336.9106  23.0133 14.95092804747190
SHIJIAN-16 (SJ-16)      
1 39358U 13057A   26061.85801449  .00000681  00000+0  69432-4 0  9990
2 39358  74.9722 198.0194 0015800 130.3216 229.9355 14.92301002670485
