CCSDS_OMM_VERS = 2.0
CREATION_DATE  = 
ORIGINATOR     = 

OBJECT_NAME    = ALOS (DAICHI)
OBJECT_ID      = 2006-002A
CENTER_NAME    = EARTH
REF_FRAME      = TEME
TIME_SYSTEM    = UTC
MEAN_ELEMENT_THEORY = SGP/SGP4

EPOCH          = 2026-03-02T19:57:08.259840
MEAN_MOTION    = 14.69783066
ECCENTRICITY   = .0001191
INCLINATION    = 98.1206
RA_OF_ASC_NODE = 17.8218
ARG_OF_PERICENTER = 51.3413
MEAN_ANOMALY   = 308.7899

EPHEMERIS_TYPE = 0
CLASSIFICATION_TYPE = U
NORAD_CAT_ID   = 28931
ELEMENT_SET_NO = 999
REV_AT_EPOCH   = 7247
BSTAR          = .3049E-3
MEAN_MOTION_DOT = .177E-4
MEAN_MOTION_DDOT = 0

CCSDS_OMM_VERS = 2.0
CREATION_DATE  = 
ORIGINATOR     = 

OBJECT_NAME    = H-2A R/B
OBJECT_ID      = 2006-002B
CENTER_NAME    = EARTH
REF_FRAME      = TEME
TIME_SYSTEM    = UTC
MEAN_ELEMENT_THEORY = SGP/SGP4

EPOCH          = 2026-03-02T09:59:23.491968
MEAN_MOTION    = 15.16231157
ECCENTRICITY   = .00519632
INCLINATION    = 98.2393
RA_OF_ASC_NODE = 207.8164
ARG_OF_PERICENTER = 266.0614
MEAN_ANOMALY   = 93.4675

EPHEMERIS_TYPE = 0
CLASSIFICATION_TYPE = U
NORAD_CAT_ID   = 28932
ELEMENT_SET_NO = 999
REV_AT_EPOCH   = 9333
BSTAR          = .61844318E-3
MEAN_MOTION_DOT = .12304E-3
MEAN_MOTION_DDOT = 0

CCSDS_OMM_VERS = 2.0
CREATION_DATE  = 
ORIGINATOR     = 

OBJECT_NAME    = RESURS-DK 1
OBJECT_ID      = 2006-021A
CENTER_NAME    = EARTH
REF_FRAME      = TEME
TIME_SYSTEM    = UTC
MEAN_ELEMENT_THEORY = SGP/SGP4

EPOCH          = 2026-03-02T17:23:23.163360
MEAN_MOTION    = 15.12688957
ECCENTRICITY   = .0002475
INCLINATION    = 69.9303
RA_OF_ASC_NODE = 255.0413
ARG_OF_PERICENTER = 165.5368
MEAN_ANOMALY   = 194.5869

EPHEMERIS_TYPE = 0
CLASSIFICATION_TYPE = U
NORAD_CAT_ID   = 29228
ELEMENT_SET_NO = 999
REV_AT_EPOCH   = 8647
BSTAR          = .18935E-3
MEAN_MOTION_DOT = .3215E-4
MEAN_MOTION_DDOT = 0

CCSDS_OMM_VERS = 2.0
CREATION_DATE  = 
ORIGINATOR     = 

OBJECT_NAME    = CZ-4B R/B
OBJECT_ID      = 2006-046C
CENTER_NAME    = EARTH
REF_FRAME      = TEME
TIME_SYSTEM    = UTC
MEAN_ELEMENT_THEORY = SGP/SGP4

EPOCH          = 2026-03-02T16:22:59.318400
MEAN_MOTION    = 15.16816041
ECCENTRICITY   = .0031855
INCLINATION    = 97.5608
RA_OF_ASC_NODE = 106.6100
ARG_OF_PERICENTER = 292.8620
MEAN_ANOMALY   = 66.9250

EPHEMERIS_TYPE = 0
CLASSIFICATION_TYPE = U
NORAD_CAT_ID   = 29507
ELEMENT_SET_NO = 999
REV_AT_EPOCH   = 5898
BSTAR          = .2913E-3
MEAN_MOTION_DOT = .573E-4
MEAN_MOTION_DDOT = 0

CCSDS_OMM_VERS = 2.0
CREATION_DATE  = 
ORIGINATOR     = 

OBJECT_NAME    = CZ-2C R/B
OBJECT_ID      = 2007-010B
CENTER_NAME    = EARTH
REF_FRAME      = TEME
TIME_SYSTEM    = UTC
MEAN_ELEMENT_THEORY = SGP/SGP4

EPOCH          = 2026-03-02T18:01:54.203520
MEAN_MOTION    = 14.20243281
ECCENTRICITY   = .0058086
INCLINATION    = 98.3977
RA_OF_ASC_NODE = 175.3782
ARG_OF_PERICENTER = 315.1529
MEAN_ANOMALY   = 44.4962

EPHEMERIS_TYPE = 0
CLASSIFICATION_TYPE = U
NORAD_CAT_ID   = 31114
ELEMENT_SET_NO = 999
REV_AT_EPOCH   = 97873
BSTAR          = .85182E-4
MEAN_MOTION_DOT = .144E-5
MEAN_MOTION_DDOT = 0

CCSDS_OMM_VERS = 2.0
CREATION_DATE  = 
ORIGINATOR     = 

OBJECT_NAME    = COSMO-SKYMED 1
OBJECT_ID      = 2007-023A
CENTER_NAME    = EARTH
REF_FRAME      = TEME
TIME_SYSTEM    = UTC
MEAN_ELEMENT_THEORY = SGP/SGP4

EPOCH          = 2026-03-02T20:15:53.002944
MEAN_MOTION    = 14.96469537
ECCENTRICITY   = .0000835
INCLINATION    = 97.8863
RA_OF_ASC_NODE = 252.8222
ARG_OF_PERICENTER = 85.9902
MEAN_ANOMALY   = 274.1414

EPHEMERIS_TYPE = 0
CLASSIFICATION_TYPE = U
NORAD_CAT_ID   = 31598
ELEMENT_SET_NO = 999
REV_AT_EPOCH   = 1388
BSTAR          = .34689E-3
MEAN_MOTION_DOT = .3878E-4
MEAN_MOTION_DDOT = 0

CCSDS_OMM_VERS = 2.0
CREATION_DATE  = 
ORIGINATOR     = 

OBJECT_NAME    = COSMOS 2428
OBJECT_ID      = 2007-029A
CENTER_NAME    = EARTH
REF_FRAME      = TEME
TIME_SYSTEM    = UTC
MEAN_ELEMENT_THEORY = SGP/SGP4

EPOCH          = 2026-03-02T19:25:13.938240
MEAN_MOTION    = 14.12944272
ECCENTRICITY   = .0008729
INCLINATION    = 70.9419
RA_OF_ASC_NODE = 217.7848
ARG_OF_PERICENTER = 284.4285
MEAN_ANOMALY   = 75.5867

EPHEMERIS_TYPE = 0
CLASSIFICATION_TYPE = U
NORAD_CAT_ID   = 31792
ELEMENT_SET_NO = 999
REV_AT_EPOCH   = 96312
BSTAR          = .71447E-4
MEAN_MOTION_DOT = .85E-6
MEAN_MOTION_DDOT = 0

CCSDS_OMM_VERS = 2.0
CREATION_DATE  = 
ORIGINATOR     = 

OBJECT_NAME    = SL-16 R/B
OBJECT_ID      = 2007-029B
CENTER_NAME    = EARTH
REF_FRAME      = TEME
TIME_SYSTEM    = UTC
MEAN_ELEMENT_THEORY = SGP/SGP4

EPOCH          = 2026-03-02T19:03:40.608864
MEAN_MOTION    = 14.14834082
ECCENTRICITY   = .0002417
INCLINATION    = 70.9755
RA_OF_ASC_NODE = 186.8781
ARG_OF_PERICENTER = 278.4023
MEAN_ANOMALY   = 233.4083

EPHEMERIS_TYPE = 0
CLASSIFICATION_TYPE = U
NORAD_CAT_ID   = 31793
ELEMENT_SET_NO = 999
REV_AT_EPOCH   = 96439
BSTAR          = -.72518E-4
MEAN_MOTION_DOT = -.188E-5
MEAN_MOTION_DDOT = 0

CCSDS_OMM_VERS = 2.0
CREATION_DATE  = 
ORIGINATOR     = 

OBJECT_NAME    = KORONAS-FOTON
OBJECT_ID      = 2009-003A
CENTER_NAME    = EARTH
REF_FRAME      = TEME
TIME_SYSTEM    = UTC
MEAN_ELEMENT_THEORY = SGP/SGP4

EPOCH          = 2026-03-02T16:43:04.315872
MEAN_MOTION    = 15.43119150
ECCENTRICITY   = .0010685
INCLINATION    = 82.4283
RA_OF_ASC_NODE = 283.1490
ARG_OF_PERICENTER = 173.5168
MEAN_ANOMALY   = 186.6220

EPHEMERIS_TYPE = 0
CLASSIFICATION_TYPE = U
NORAD_CAT_ID   = 33504
ELEMENT_SET_NO = 999
REV_AT_EPOCH   = 94466
BSTAR          = .29745E-3
MEAN_MOTION_DOT = .13226E-3
MEAN_MOTION_DDOT = 0

CCSDS_OMM_VERS = 2.0
CREATION_DATE  = 
ORIGINATOR     = 

OBJECT_NAME    = CZ-2C R/B
OBJECT_ID      = 2011-030B
CENTER_NAME    = EARTH
REF_FRAME      = TEME
TIME_SYSTEM    = UTC
MEAN_ELEMENT_THEORY = SGP/SGP4

EPOCH          = 2026-03-02T18:56:12.045120
MEAN_MOTION    = 14.81188581
ECCENTRICITY   = .0053062
INCLINATION    = 97.8529
RA_OF_ASC_NODE = 19.1907
ARG_OF_PERICENTER = 14.4983
MEAN_ANOMALY   = 46.8443

EPHEMERIS_TYPE = 0
CLASSIFICATION_TYPE = U
NORAD_CAT_ID   = 37731
ELEMENT_SET_NO = 999
REV_AT_EPOCH   = 78907
BSTAR          = .28281E-3
MEAN_MOTION_DOT = .22E-4
MEAN_MOTION_DDOT = 0

CCSDS_OMM_VERS = 2.0
CREATION_DATE  = 
ORIGINATOR     = 

OBJECT_NAME    = H-2A R/B
OBJECT_ID      = 2012-025E
CENTER_NAME    = EARTH
REF_FRAME      = TEME
TIME_SYSTEM    = UTC
MEAN_ELEMENT_THEORY = SGP/SGP4

EPOCH          = 2026-03-02T20:02:59.277120
MEAN_MOTION    = 14.95092804
ECCENTRICITY   = .0044018
INCLINATION    = 98.4711
RA_OF_ASC_NODE = 28.3333
ARG_OF_PERICENTER = 336.9106
MEAN_ANOMALY   = 23.0133

EPHEMERIS_TYPE = 0
CLASSIFICATION_TYPE = U
NORAD_CAT_ID   = 38341
ELEMENT_SET_NO = 999
REV_AT_EPOCH   = 74719
BSTAR          = .458E-3
MEAN_MOTION_DOT = .5048E-4
MEAN_MOTION_DDOT = 0

CCSDS_OMM_VERS = 2.0
CREATION_DATE  = 
ORIGINATOR     = 

OBJECT_NAME    = SHIJIAN-16 (SJ-16)
OBJECT_ID      = 2013-057A
CENTER_NAME    = EARTH
REF_FRAME      = TEME
TIME_SYSTEM    = UTC
MEAN_ELEMENT_THEORY = SGP/SGP4

EPOCH          = 2026-03-02T20:35:32.451936
MEAN_MOTION    = 14.92301002
ECCENTRICITY   = .00158
INCLINATION    = 74.9722
RA_OF_ASC_NODE = 198.0194
ARG_OF_PERICENTER = 130.3216
MEAN_ANOMALY   = 229.9355

EPHEMERIS_TYPE = 0
CLASSIFICATION_TYPE = U
NORAD_CAT_ID   = 39358
ELEMENT_SET_NO = 999
REV_AT_EPOCH   = 67048
BSTAR          = .69432E-4
MEAN_MOTION_DOT = .681E-5
MEAN_MOTION_DDOT = 0

